{"type": "FeatureCollection", "features": [ {"type": "Feature", "properties": {"norad_id": 28649, "name": "IRS-P5 (CARTOSAT-1)", "group": "resource", "lat": 52.94615729034504, "lon": -154.77350782102133, "alt_km": 591.5739483989755, "timestamp": "2025-12-14T18:52:55.154681+00:00", "meta": {"OBJECT_NAME": "IRS-P5 (CARTOSAT-1)", "OBJECT_ID": "2005-017A", "EPOCH": "2025-12-13T22:58:54.352128", "MEAN_MOTION": 14.90410616, "ECCENTRICITY": 0.00011671, "INCLINATION": 97.5499, "RA_OF_ASC_NODE": 14.3169, "ARG_OF_PERICENTER": 48.5975, "MEAN_ANOMALY": 311.5344, "EPHEMERIS_TYPE": 0, "CLASSIFICATION_TYPE": "U", "NORAD_CAT_ID": 28649, "ELEMENT_SET_NO": 999, "REV_AT_EPOCH": 11622, "BSTAR": 0.00027083427, "MEAN_MOTION_DOT": 2.586e-05, "MEAN_MOTION_DDOT": 0}, "tle": {"line1": "1 28649U 05017A   25347.95757352  .00002586  00000+0  27083-3 0  9999", "line2": "2 28649  97.5499  14.3169 0001167  48.5975 311.5344 14.90410616116226"}}, "geometry": {"type": "Point", "coordinates": [-154.77350782102133, 52.94615729034504]}}, {"type": "Feature", "properties": {"norad_id": 28893, "name": "SINAH 1", "group": "resource", "lat": -72.69546848729387, "lon": 145.14277172605182, "alt_km": 697.5034285392367, "timestamp": "2025-12-14T18:52:55.154693+00:00", "meta": {"OBJECT_NAME": "SINAH 1", "OBJECT_ID": "2005-043D", "EPOCH": "2025-12-13T23:32:22.488576", "MEAN_MOTION": 14.63964263, "ECCENTRICITY": 0.00154019, "INCLINATION": 98.2603, "RA_OF_ASC_NODE": 116.5413, "ARG_OF_PERICENTER": 133.3353, "MEAN_ANOMALY": 226.9136, "EPHEMERIS_TYPE": 0, "CLASSIFICATION_TYPE": "U", "NORAD_CAT_ID": 28893, "ELEMENT_SET_NO": 999, "REV_AT_EPOCH": 7342, "BSTAR": 0.00013752156, "MEAN_MOTION_DOT": 6.72e-06, "MEAN_MOTION_DDOT": 0}, "tle": {"line1": "1 28893U 05043D   25347.98081584  .00000672  00000+0  13752-3 0  9991", "line2": "2 28893  98.2603 116.5413 0015401 133.3353 226.9136 14.63964263 73422"}}, "geometry": {"type": "Point", "coordinates": [145.14277172605182, -72.69546848729387]}}, {"type": "Feature", "properties": {"norad_id": 29079, "name": "EROS B", "group": "resource", "lat": -15.329844503245921, "lon": 107.48512030316009, "alt_km": 365.3211800545423, "timestamp": "2025-12-14T18:52:55.154703+00:00", "meta": {"OBJECT_NAME": "EROS B", "OBJECT_ID": "2006-014A", "EPOCH": "2025-12-13T23:02:51.169344", "MEAN_MOTION": 15.68742689, "ECCENTRICITY": 0.00025509, "INCLINATION": 97.3464, "RA_OF_ASC_NODE": 104.5919, "ARG_OF_PERICENTER": 307.9018, "MEAN_ANOMALY": 52.2013, "EPHEMERIS_TYPE": 0, "CLASSIFICATION_TYPE": "U", "NORAD_CAT_ID": 29079, "ELEMENT_SET_NO": 999, "REV_AT_EPOCH": 9099, "BSTAR": 0.0013791766, "MEAN_MOTION_DOT": 0.00159813, "MEAN_MOTION_DDOT": 0}, "tle": {"line1": "1 29079U 06014A   25347.96031446  .00159813  00000+0  13792-2 0  9992", "line2": "2 29079  97.3464 104.5919 0002550 307.9018  52.2013 15.68742689 90997"}}, "geometry": {"type": "Point", "coordinates": [107.48512030316009, -15.329844503245921]}}, {"type": "Feature", "properties": {"norad_id": 29228, "name": "RESURS-DK 1", "group": "resource", "lat": -25.378036682781598, "lon": -73.46483359379643, "alt_km": 531.4358992793077, "timestamp": "2025-12-14T18:52:55.154714+00:00", "meta": {"OBJECT_NAME": "RESURS-DK 1", "OBJECT_ID": "2006-021A", "EPOCH": "2025-12-13T18:09:18.822240", "MEAN_MOTION": 15.1216881, "ECCENTRICITY": 0.00071323, "INCLINATION": 69.9332, "RA_OF_ASC_NODE": 99.2108, "ARG_OF_PERICENTER": 258.4187, "MEAN_ANOMALY": 101.6178, "EPHEMERIS_TYPE": 0, "CLASSIFICATION_TYPE": "U", "NORAD_CAT_ID": 29228, "ELEMENT_SET_NO": 999, "REV_AT_EPOCH": 7453, "BSTAR": 0.00021607827, "MEAN_MOTION_DOT": 3.632e-05, "MEAN_MOTION_DDOT": 0}, "tle": {"line1": "1 29228U 06021A   25347.75646785  .00003632  00000+0  21608-3 0  9994", "line2": "2 29228  69.9332  99.2108 0007132 258.4187 101.6178 15.12168810 74530"}}, "geometry": {"type": "Point", "coordinates": [-73.46483359379643, -25.378036682781598]}}, {"type": "Feature", "properties": {"norad_id": 29268, "name": "ARIRANG-2 (KOMPSAT-2)", "group": "resource", "lat": -14.35785782372383, "lon": -4.858115808368845, "alt_km": 686.2880327704943, "timestamp": "2025-12-14T18:52:55.154725+00:00", "meta": {"OBJECT_NAME": "ARIRANG-2 (KOMPSAT-2)", "OBJECT_ID": "2006-031A", "EPOCH": "2025-12-14T00:38:59.363808", "MEAN_MOTION": 14.6449638, "ECCENTRICITY": 0.00134609, "INCLINATION": 97.8265, "RA_OF_ASC_NODE": 176.4372, "ARG_OF_PERICENTER": 304.8407, "MEAN_ANOMALY": 206.9495, "EPHEMERIS_TYPE": 0, "CLASSIFICATION_TYPE": "U", "NORAD_CAT_ID": 29268, "ELEMENT_SET_NO": 999, "REV_AT_EPOCH": 3437, "BSTAR": 0.00016227269, "MEAN_MOTION_DOT": 8.16e-06, "MEAN_MOTION_DDOT": 0}, "tle": {"line1": "1 29268U 06031A   25348.02707597  .00000816  00000+0  16227-3 0  9991", "line2": "2 29268  97.8265 176.4372 0013460 304.8407 206.9495 14.64496380 34373"}}, "geometry": {"type": "Point", "coordinates": [-4.858115808368845, -14.35785782372383]}}, {"type": "Feature", "properties": {"norad_id": 29709, "name": "LAPAN-TUBSAT", "group": "resource", "lat": -73.10454600832557, "lon": 7.045536650143994, "alt_km": 626.3303149264902, "timestamp": "2025-12-14T18:52:55.154736+00:00", "meta": {"OBJECT_NAME": "LAPAN-TUBSAT", "OBJECT_ID": "2007-001A", "EPOCH": "2025-12-13T23:49:23.002176", "MEAN_MOTION": 14.85673312, "ECCENTRICITY": 0.00135551, "INCLINATION": 98.1258, "RA_OF_ASC_NODE": 338.1749, "ARG_OF_PERICENTER": 70.4335, "MEAN_ANOMALY": 289.8342, "EPHEMERIS_TYPE": 0, "CLASSIFICATION_TYPE": "U", "NORAD_CAT_ID": 29709, "ELEMENT_SET_NO": 999, "REV_AT_EPOCH": 2365, "BSTAR": 0.00014852239, "MEAN_MOTION_DOT": 1.232e-05, "MEAN_MOTION_DDOT": 0}, "tle": {"line1": "1 29709U 07001A   25347.99262734  .00001232  00000+0  14852-3 0  9998", "line2": "2 29709  98.1258 338.1749 0013555  70.4335 289.8342 14.85673312 23650"}}, "geometry": {"type": "Point", "coordinates": [7.045536650143994, -73.10454600832557]}}, {"type": "Feature", "properties": {"norad_id": 31113, "name": "HAIYANG-1B", "group": "resource", "lat": 51.346942870124025, "lon": 163.53753560662645, "alt_km": 784.7406727707985, "timestamp": "2025-12-14T18:52:55.154746+00:00", "meta": {"OBJECT_NAME": "HAIYANG-1B", "OBJECT_ID": "2007-010A", "EPOCH": "2025-12-13T22:09:00.193824", "MEAN_MOTION": 14.30965522, "ECCENTRICITY": 0.00142076, "INCLINATION": 98.3315, "RA_OF_ASC_NODE": 332.1521, "ARG_OF_PERICENTER": 34.6099, "MEAN_ANOMALY": 325.6007, "EPHEMERIS_TYPE": 0, "CLASSIFICATION_TYPE": "U", "NORAD_CAT_ID": 31113, "ELEMENT_SET_NO": 999, "REV_AT_EPOCH": 97413, "BSTAR": 8.7561363e-05, "MEAN_MOTION_DOT": 1.89e-06, "MEAN_MOTION_DDOT": 0}, "tle": {"line1": "1 31113U 07010A   25347.92291891  .00000189  00000+0  87561-4 0  9997", "line2": "2 31113  98.3315 332.1521 0014207  34.6099 325.6007 14.30965522974136"}}, "geometry": {"type": "Point", "coordinates": [163.53753560662645, 51.346942870124025]}}, {"type": "Feature", "properties": {"norad_id": 31598, "name": "COSMO-SKYMED 1", "group": "resource", "lat": -44.22855394275035, "lon": -178.04959334080598, "alt_km": 587.2817479210062, "timestamp": "2025-12-14T18:52:55.154757+00:00", "meta": {"OBJECT_NAME": "COSMO-SKYMED 1", "OBJECT_ID": "2007-023A", "EPOCH": "2025-12-13T23:48:56.530080", "MEAN_MOTION": 14.95776759, "ECCENTRICITY": 0.00013188, "INCLINATION": 97.8834, "RA_OF_ASC_NODE": 173.3995, "ARG_OF_PERICENTER": 90.1083, "MEAN_ANOMALY": 270.0289, "EPHEMERIS_TYPE": 0, "CLASSIFICATION_TYPE": "U", "NORAD_CAT_ID": 31598, "ELEMENT_SET_NO": 999, "REV_AT_EPOCH": 209, "BSTAR": 0.00042433741, "MEAN_MOTION_DOT": 4.674e-05, "MEAN_MOTION_DDOT": 0}, "tle": {"line1": "1 31598U 07023A   25347.99232095  .00004674  00000+0  42434-3 0  9998", "line2": "2 31598  97.8834 173.3995 0001318  90.1083 270.0289 14.95776759  2097"}}, "geometry": {"type": "Point", "coordinates": [-178.04959334080598, -44.22855394275035]}}, {"type": "Feature", "properties": {"norad_id": 31698, "name": "TERRASAR-X", "group": "resource", "lat": 36.36386373713274, "lon": 179.66229883582554, "alt_km": 505.26970363965665, "timestamp": "2025-12-14T18:52:55.154767+00:00", "meta": {"OBJECT_NAME": "TERRASAR-X", "OBJECT_ID": "2007-026A", "EPOCH": "2025-12-13T12:13:05.117664", "MEAN_MOTION": 15.19151549, "ECCENTRICITY": 0.00017647, "INCLINATION": 97.4456, "RA_OF_ASC_NODE": 352.8775, "ARG_OF_PERICENTER": 89.7934, "MEAN_ANOMALY": 270.3503, "EPHEMERIS_TYPE": 0, "CLASSIFICATION_TYPE": "U", "NORAD_CAT_ID": 31698, "ELEMENT_SET_NO": 999, "REV_AT_EPOCH": 2503, "BSTAR": 0.00010409632, "MEAN_MOTION_DOT": 2.12e-05, "MEAN_MOTION_DDOT": 0}, "tle": {"line1": "1 31698U 07026A   25347.50908701  .00002120  00000+0  10410-3 0  9996", "line2": "2 31698  97.4456 352.8775 0001764  89.7934 270.3503 15.19151549 25030"}}, "geometry": {"type": "Point", "coordinates": [179.66229883582554, 36.36386373713274]}}, {"type": "Feature", "properties": {"norad_id": 32060, "name": "WORLDVIEW-1 (WV-1)", "group": "resource", "lat": -5.463567983959745, "lon": -74.47237972948783, "alt_km": 495.2495235181095, "timestamp": "2025-12-14T18:52:55.154778+00:00", "meta": {"OBJECT_NAME": "WORLDVIEW-1 (WV-1)", "OBJECT_ID": "2007-041A", "EPOCH": "2025-12-13T21:35:44.369376", "MEAN_MOTION": 15.24715909, "ECCENTRICITY": 8.031e-05, "INCLINATION": 97.3831, "RA_OF_ASC_NODE": 105.364, "ARG_OF_PERICENTER": 110.7836, "MEAN_ANOMALY": 249.3488, "EPHEMERIS_TYPE": 0, "CLASSIFICATION_TYPE": "U", "NORAD_CAT_ID": 32060, "ELEMENT_SET_NO": 999, "REV_AT_EPOCH": 1465, "BSTAR": 0.00039798427, "MEAN_MOTION_DOT": 9.781e-05, "MEAN_MOTION_DDOT": 0}, "tle": {"line1": "1 32060U 07041A   25347.89981909  .00009781  00000+0  39798-3 0  9990", "line2": "2 32060  97.3831 105.3640 0000803 110.7836 249.3488 15.24715909 14657"}}, "geometry": {"type": "Point", "coordinates": [-74.47237972948783, -5.463567983959745]}}]}